[{"OBJECT_NAME":"AE1C","OBJECT_ID":"2025-009AS","EPOCH":"2026-03-09T18:00:26.795232","MEAN_MOTION":15.39795363,"ECCENTRICITY":6.641e-5,"INCLINATION":97.4058,"RA_OF_ASC_NODE":154.7496,"ARG_OF_PERICENTER":250.762,"MEAN_ANOMALY":109.3554,"EPHEMERIS_TYPE":0,"CLASSIFICATION_TYPE":"U","NORAD_CAT_ID":62649,"ELEMENT_SET_NO":999,"REV_AT_EPOCH":6395,"BSTAR":0.00083789281,"MEAN_MOTION_DOT":0.00033224,"MEAN_MOTION_DDOT":0},{"OBJECT_NAME":"FENGYUN 1C DEB","OBJECT_ID":"1999-025CUF","EPOCH":"2026-03-09T01:34:38.628768","MEAN_MOTION":15.17132493,"ECCENTRICITY":0.01273829,"INCLINATION":98.8955,"RA_OF_ASC_NODE":293.2327,"ARG_OF_PERICENTER":89.1897,"MEAN_ANOMALY":272.3925,"EPHEMERIS_TYPE":0,"CLASSIFICATION_TYPE":"U","NORAD_CAT_ID":32185,"ELEMENT_SET_NO":999,"REV_AT_EPOCH":96318,"BSTAR":0.0036969643,"MEAN_MOTION_DOT":0.00091378,"MEAN_MOTION_DDOT":0}]
